NORAD_CAT_ID,OBJECT_NAME,OBJECT_TYPE,EPOCH,MEAN_MOTION,ECCENTRICITY,INCLINATION,RA_OF_ASC_NODE,ARG_OF_PERICENTER,MEAN_ANOMALY,BSTAR,MEAN_MOTION_DOT,MEAN_MOTION_DDOT,TLE_LINE0,TLE_LINE1,TLE_LINE2,SEMIMAJOR_AXIS,PERIOD,APOGEE,PERIGEE,DECAYED
53933.0,STARLINK-4782,PAYLOAD,2022-11-08 22:00:00,15.73353013,0.0003106,53.2172,30.5078,11.3661,50.8737,-0.00088924,-0.00124445,0.0,0 STARLINK-4782,1 53933U 22119AZ  22312.91667824 -.00124445  00000-0 -88924-3 0  9997,2 53933  53.2172  30.5078 0003106  11.3661  50.8737 15.73353013  1301,6727.459,91.524,351.414,347.2340000000001,0.0
53933.0,STARLINK-4782,PAYLOAD,2022-11-09 14:00:01,15.73119163,0.0003425,53.2175,27.21,14.5614,225.6833,-0.00026305,-0.00037262,0.0,0 STARLINK-4782,1 53933U 22119AZ  22313.58334491 -.00037262  00000-0 -26305-3 0  9997,2 53933  53.2175  27.2100 0003425  14.5614 225.6833 15.73119163  7615,6728.126,91.538,352.295,347.686,0.0
53933.0,STARLINK-4782,PAYLOAD,2022-11-09 22:00:01,15.73082476,0.0003226,53.2171,25.5592,9.8492,319.2707,-0.00045155,-0.00063224,0.0,0 STARLINK-4782,1 53933U 22119AZ  22313.91668981 -.00063224  00000-0 -45155-3 0  9999,2 53933  53.2171  25.5592 0003226   9.8492 319.2707 15.73082476  1303,6728.23,91.54,352.266,347.925,0.0
53933.0,STARLINK-4782,PAYLOAD,2022-11-10 14:00:01,15.73085458,0.0003494,53.217,22.2626,9.9462,136.6774,0.00070618,0.00099198,0.0,0 STARLINK-4782,1 53933U 22119AZ  22314.58334491  .00099198  00000-0  70618-3 0  9998,2 53933  53.2170  22.2626 0003494   9.9462 136.6774 15.73085458  1307,6728.222,91.54,352.43800000000016,347.736,0.0
53933.0,STARLINK-4782,PAYLOAD,2022-11-10 20:00:01,15.73157377,0.0003457,53.2168,21.0245,10.3431,112.8918,0.00018546,0.00025444,0.0,0 STARLINK-4782,1 53933U 22119AZ  22314.83334491  .00025444  00000-0  18546-3 0  9991,2 53933  53.2168  21.0245 0003457  10.3431 112.8918 15.73157377  7817,6728.017,91.536,352.208,347.556,0.0
53933.0,STARLINK-4782,PAYLOAD,2022-11-10 22:00:00,15.73157943,0.0003405,53.2171,20.6116,10.6442,224.8095,0.00029054,0.00040285,0.0,0 STARLINK-4782,1 53933U 22119AZ  22314.91667824  .00040285  00000-0  29054-3 0  9995,2 53933  53.2171  20.6116 0003405  10.6442 224.8095 15.73157943  1308,6728.015,91.536,352.171,347.589,0.0
53933.0,STARLINK-4782,PAYLOAD,2022-11-11 06:00:00,15.73180623,0.0003374,53.2173,18.9619,12.0052,312.3409,0.00097216,0.00137989,0.0,0 STARLINK-4782,1 53933U 22119AZ  22315.25001157  .00137989  00000-0  97216-3 0  9997,2 53933  53.2173  18.9619 0003374  12.0052 312.3409 15.73180623  7877,6727.95,91.534,352.085,347.545,0.0
53933.0,STARLINK-4782,PAYLOAD,2022-11-11 14:00:01,15.73226232,0.0003739,53.2171,17.3092,13.0925,40.216,0.00069865,0.00098727,0.0,0 STARLINK-4782,1 53933U 22119AZ  22315.58334491  .00098727  00000-0  69865-3 0  9998,2 53933  53.2171  17.3092 0003739  13.0925  40.2160 15.73226232  7933,6727.82,91.532,352.201,347.17,0.0
53933.0,STARLINK-4782,PAYLOAD,2022-11-11 22:00:00,15.73306667,0.0003549,53.2169,15.6628,10.5885,131.726,-0.00040961,-0.00058,0.0,0 STARLINK-4782,1 53933U 22119AZ  22315.91667824 -.00058000  00000-0 -40961-3 0  9992,2 53933  53.2169  15.6628 0003549  10.5885 131.7260 15.73306667  1305,6727.590999999999,91.527,351.844,347.0680000000001,0.0
53933.0,STARLINK-4782,PAYLOAD,2022-11-12 06:00:00,15.73266615,0.0003471,53.2169,14.0132,8.6215,222.7237,0.00010646,0.00014389,0.0,0 STARLINK-4782,1 53933U 22119AZ  22316.25001157  .00014389  00000-0  10646-3 0  9998,2 53933  53.2169  14.0132 0003471   8.6215 222.7237 15.73266615  8037,6727.705,91.529,351.905,347.235,0.0
53933.0,STARLINK-4782,PAYLOAD,2022-11-12 14:00:01,15.73254333,0.0003746,53.2166,12.3653,5.3037,315.0564,-0.00014219,-0.00020586,0.0,0 STARLINK-4782,1 53933U 22119AZ  22316.58334491 -.00020586  00000-0 -14219-3 0  9992,2 53933  53.2166  12.3653 0003746   5.3037 315.0564 15.73254333  1300,6727.74,91.53,352.125,347.085,0.0
53933.0,STARLINK-4782,PAYLOAD,2022-11-12 22:00:00,15.73236435,0.0003607,53.2168,10.7137,4.7124,44.6387,-0.00054948,-0.00077188,0.0,0 STARLINK-4782,1 53933U 22119AZ  22316.91667824 -.00077188  00000-0 -54948-3 0  9991,2 53933  53.2168  10.7137 0003607   4.7124  44.6387 15.73236435  8147,6727.791,91.531,352.083,347.23,0.0
53933.0,STARLINK-4782,PAYLOAD,2022-11-13 14:00:01,15.73070816,0.0004006,53.2169,7.4165,9.0299,218.1343,0.00067074,0.0009408,0.0,0 STARLINK-4782,1 53933U 22119AZ  22317.58334491  .00094080  00000-0  67074-3 0  9998,2 53933  53.2169   7.4165 0004006   9.0299 218.1343 15.73070816  1307,6728.264,91.541,352.824,347.43300000000005,0.0
53933.0,STARLINK-4782,PAYLOAD,2022-11-13 22:00:00,15.7312158,0.0003815,53.2168,5.7653,10.6024,305.3806,0.00056436,0.00079088,0.0,0 STARLINK-4782,1 53933U 22119AZ  22317.91667824  .00079088  00000-0  56436-3 0  9995,2 53933  53.2168   5.7653 0003815  10.6024 305.3806 15.73121580  1308,6728.119000000002,91.538,352.551,347.417,0.0
53933.0,STARLINK-4782,PAYLOAD,2022-11-14 14:00:01,15.73197956,0.0004093,53.2163,2.4678,11.6403,122.1482,0.0008502,0.00120452,0.0,0 STARLINK-4782,1 53933U 22119AZ  22318.58334491  .00120452  00000-0  85020-3 0  9993,2 53933  53.2163   2.4678 0004093  11.6403 122.1482 15.73197956  1300,6727.901,91.533,352.52,347.01199999999994,0.0
53933.0,STARLINK-4782,PAYLOAD,2022-11-14 22:00:00,15.73331454,0.000386,53.2168,0.8067,10.291,212.4735,-0.0014289,-0.00197746,0.0,0 STARLINK-4782,1 53933U 22119AZ  22318.91667824 -.00197746  00000-0 -14289-2 0  9999,2 53933  53.2168   0.8067 0003860  10.2910 212.4735 15.73331454  8458,6727.52,91.526,351.982,346.789,0.0
53933.0,STARLINK-4782,PAYLOAD,2022-11-15 06:00:00,15.73277305,0.00038,53.217,359.1576,9.1137,302.6278,-0.00096277,-0.00134122,0.0,0 STARLINK-4782,1 53933U 22119AZ  22319.25001157 -.00134122  00000-0 -96277-3 0  9995,2 53933  53.2170 359.1576 0003800   9.1137 302.6278 15.73277305  8502,6727.675,91.529,352.096,346.983,0.0
53933.0,STARLINK-4782,PAYLOAD,2022-11-15 14:00:01,15.73224727,0.0004194,53.2166,357.5195,7.6084,33.0803,0.00020755,0.00028647,0.0,0 STARLINK-4782,1 53933U 22119AZ  22319.58334491  .00028647  00000-0  20755-3 0  9991,2 53933  53.2166 357.5195 0004194   7.6084  33.0803 15.73224727  8562,6727.825,91.532,352.511,346.86800000000005,0.0
53933.0,STARLINK-4782,PAYLOAD,2022-11-15 22:00:00,15.73202722,0.0003898,53.2167,355.8671,4.454,125.2212,-0.00014298,-0.00020653,0.0,0 STARLINK-4782,1 53933U 22119AZ  22319.91667824 -.00020653  00000-0 -14298-3 0  9993,2 53933  53.2167 355.8671 0003898   4.4540 125.2212 15.73202722  8610,6727.887,91.533,352.375,347.13,0.0
53933.0,STARLINK-4782,PAYLOAD,2022-11-16 14:00:01,15.73136711,0.0003983,53.2168,352.55400000000014,8.5669,299.0187,0.0007529,0.00106132,0.0,0 STARLINK-4782,1 53933U 22119AZ  22320.58335648  .00106132  00000-0  75290-3 0  9998,2 53933  53.2168 352.5540 0003983   8.5669 299.0187 15.73136711  1306,6728.076,91.537,352.62,347.261,0.0
53933.0,STARLINK-4782,PAYLOAD,2022-11-16 20:00:01,15.73206191,0.0003796,53.2175,351.3104,10.7784,273.4108,-2.7808e-05,-4.528e-05,0.0,0 STARLINK-4782,1 53933U 22119AZ  22320.83334491 -.00004528  00000-0 -27808-4 0  9992,2 53933  53.2175 351.3104 0003796  10.7784 273.4108 15.73206191  8757,6727.878000000002,91.533,352.296,347.189,0.0
53933.0,STARLINK-4782,PAYLOAD,2022-11-16 22:00:08,15.73201943,0.0003778,53.2173,350.8971,10.919,25.9648,2.9627e-05,3.537e-05,0.0,0 STARLINK-4782,1 53933U 22119AZ  22320.91675926  .00003537  00000-0  29627-4 0  9990,2 53933  53.2173 350.8971 0003778  10.9190  25.9648 15.73201943  1307,6727.89,91.533,352.296,347.213,0.0
53933.0,STARLINK-4782,PAYLOAD,2022-11-17 06:00:00,15.73245636,0.0004091,53.2166,349.2709,3.2453,122.1763,-0.00040356,-0.0005702,0.0,0 STARLINK-4782,1 53933U 22119AZ  22321.25001157 -.00057020  00000-0 -40356-3 0  9996,2 53933  53.2166 349.2709 0004091   3.2453 122.1763 15.73245636  8825,6727.765,91.531,352.38199999999995,346.87800000000016,0.0
53933.0,STARLINK-4782,PAYLOAD,2022-11-17 14:00:01,15.7322736,0.0004262,53.2163,347.6224,1.7515,212.6219,-0.00023333,-0.00033299,0.0,0 STARLINK-4782,1 53933U 22119AZ  22321.58334491 -.00033299  00000-0 -23333-3 0  9990,2 53933  53.2163 347.6224 0004262   1.7515 212.6219 15.73227360  1309,6727.816999999999,91.532,352.55,346.815,0.0
53933.0,STARLINK-4782,PAYLOAD,2022-11-17 22:00:00,15.73168437,0.0004118,53.2163,345.971,0.194,303.0993,0.00067588,0.0009522,0.0,0 STARLINK-4782,1 53933U 22119AZ  22321.91667824  .00095220  00000-0  67588-3 0  9996,2 53933  53.2163 345.9710 0004118   0.1940 303.0993 15.73168437  8923,6727.985,91.535,352.621,347.08,0.0
53933.0,STARLINK-4782,PAYLOAD,2022-11-18 06:00:00,15.73250617,0.0004196,53.2164,344.3230000000001,0.1767,32.0458,-0.00051838,-0.00072947,0.0,0 STARLINK-4782,1 53933U 22119AZ  22322.25001157 -.00072947  00000-0 -51838-3 0  9999,2 53933  53.2164 344.3230 0004196   0.1767  32.0458 15.73250617  8979,6727.751,91.53,352.439,346.793,0.0
53933.0,STARLINK-4782,PAYLOAD,2022-11-18 14:00:01,15.73236754,0.000423,53.2156,342.6740000000001,358.5204,122.6804,-0.00026412,-0.00037606,0.0,0 STARLINK-4782,1 53933U 22119AZ  22322.58334491 -.00037606  00000-0 -26412-3 0  9998,2 53933  53.2156 342.6740 0004230 358.5204 122.6804 15.73236754  9037,6727.79,91.531,352.501,346.81,0.0
53933.0,STARLINK-4782,PAYLOAD,2022-11-18 22:00:00,15.73206143,0.0003922,53.2157,341.0224,358.8218,211.3385,0.00014107,0.00019232,0.0,0 STARLINK-4782,1 53933U 22119AZ  22322.91667824  .00019232  00000-0  14107-3 0  9995,2 53933  53.2157 341.0224 0003922 358.8218 211.3385 15.73206143  1304,6727.878000000002,91.533,352.381,347.10400000000016,0.0
53933.0,STARLINK-4782,PAYLOAD,2022-11-19 06:00:00,15.73234617,0.0004076,53.2159,339.3742,2.036,297.0752,-0.000608,-0.00085266,0.0,0 STARLINK-4782,1 53933U 22119AZ  22323.25001157 -.00085266  00000-0 -60800-3 0  9997,2 53933  53.2159 339.3742 0004076   2.0360 297.0752 15.73234617  9133,6727.795999999999,91.531,352.404,346.9190000000001,0.0
